RSP-03                  
1 65732U 98067XL  26032.27921369  .00394326  71011-4  11249-2 0  9995
2 65732  51.6171 235.4300 0005324 225.2129 134.8445 15.92696348 21140
YOTSUBA-KULOVER         
1 65941U 98067XN  26032.01050695  .00091696  00000+0  77713-3 0  9992
2 65941  51.6244 245.7262 0004416 199.2014 160.8817 15.68909729 17722
BOTAN                   
1 65942U 98067XP  26031.81777673  .00214162  00000+0  11205-2 0  9990
2 65942  51.6186 243.6587 0005413 214.9689 145.0958 15.79643607 17730
E-KAGAKU-1              
1 65943U 98067XQ  26031.88347863  .00098228  00000+0  83487-3 0  9997
2 65943  51.6263 246.3872 0003284 210.1365 149.9444 15.68815577 17702
HRC MONOBLOCK CAMERA    
1 66052U 98067XR  26031.99983248  .00038328  00000+0  49756-3 0  9990
2 66052  51.6280 250.1628 0000325  24.5240 335.5767 15.58437401 16667
HTV-X1                  
1 66174U 25241A   26032.11330074  .00006524  00000+0  12933-3 0  9997
2 66174  51.6318 253.1662 0011127  51.9836 308.2155 15.48314896   518
SZ-21 MODULE            
1 66515U 25246C   26032.11165007  .00028933  00000+0  27960-3 0  9997
2 66515  41.4758  68.0505 0003355 263.6725  96.3734 15.65787969 12339
SHENZHOU-22             
1 66645U 25272A   26031.38642198  .00028253  00000+0  32371-3 0  9996
2 66645  41.4674  74.8264 0008909  46.9753 313.1831 15.61427822267649
SOYUZ-MS 28             
1 66664U 25275A   26032.11330074  .00006524  00000+0  12933-3 0  9998
2 66664  51.6318 253.1662 0011127  51.9836 308.2155 15.48314896  1287
DUPLEX                  
1 66906U 98067XS  26032.01682973  .00026515  00000+0  41379-3 0  9991
2 66906  51.6290 252.5255 0001602  80.9639 279.1532 15.53632760  9424
1998-067XT              
1 66907U 98067XT  26031.84642542  .00078348  00000+0  95077-3 0  9995
2 66907  51.6268 252.1368 0002789 161.7115 198.3979 15.59907385  9415
1998-067XU              
1 66908U 98067XU  26031.84601891  .00083595  00000+0  10124-2 0  9997
2 66908  51.6262 252.1321 0002605 161.1183 198.9907 15.59932347  9418
