CCSDS_OMM_VERS = 2.0
CREATION_DATE  = 
ORIGINATOR     = 

OBJECT_NAME    = RSP-03
OBJECT_ID      = 1998-067XL
CENTER_NAME    = EARTH
REF_FRAME      = TEME
TIME_SYSTEM    = UTC
MEAN_ELEMENT_THEORY = SGP/SGP4

EPOCH          = 2026-02-01T06:42:04.062816
MEAN_MOTION    = 15.92696348
ECCENTRICITY   = .00053242
INCLINATION    = 51.6171
RA_OF_ASC_NODE = 235.4300
ARG_OF_PERICENTER = 225.2129
MEAN_ANOMALY   = 134.8445

EPHEMERIS_TYPE = 0
CLASSIFICATION_TYPE = U
NORAD_CAT_ID   = 65732
ELEMENT_SET_NO = 999
REV_AT_EPOCH   = 2114
BSTAR          = .11248922E-2
MEAN_MOTION_DOT = .394326E-2
MEAN_MOTION_DDOT = .71011166E-4

CCSDS_OMM_VERS = 2.0
CREATION_DATE  = 
ORIGINATOR     = 

OBJECT_NAME    = YOTSUBA-KULOVER
OBJECT_ID      = 1998-067XN
CENTER_NAME    = EARTH
REF_FRAME      = TEME
TIME_SYSTEM    = UTC
MEAN_ELEMENT_THEORY = SGP/SGP4

EPOCH          = 2026-02-01T00:15:07.800480
MEAN_MOTION    = 15.68909729
ECCENTRICITY   = .00044166
INCLINATION    = 51.6244
RA_OF_ASC_NODE = 245.7262
ARG_OF_PERICENTER = 199.2014
MEAN_ANOMALY   = 160.8817

EPHEMERIS_TYPE = 0
CLASSIFICATION_TYPE = U
NORAD_CAT_ID   = 65941
ELEMENT_SET_NO = 999
REV_AT_EPOCH   = 1772
BSTAR          = .77713403E-3
MEAN_MOTION_DOT = .91696E-3
MEAN_MOTION_DDOT = 0

CCSDS_OMM_VERS = 2.0
CREATION_DATE  = 
ORIGINATOR     = 

OBJECT_NAME    = BOTAN
OBJECT_ID      = 1998-067XP
CENTER_NAME    = EARTH
REF_FRAME      = TEME
TIME_SYSTEM    = UTC
MEAN_ELEMENT_THEORY = SGP/SGP4

EPOCH          = 2026-01-31T19:37:35.909472
MEAN_MOTION    = 15.79643607
ECCENTRICITY   = .00054135
INCLINATION    = 51.6186
RA_OF_ASC_NODE = 243.6587
ARG_OF_PERICENTER = 214.9689
MEAN_ANOMALY   = 145.0958

EPHEMERIS_TYPE = 0
CLASSIFICATION_TYPE = U
NORAD_CAT_ID   = 65942
ELEMENT_SET_NO = 999
REV_AT_EPOCH   = 1773
BSTAR          = .11205079E-2
MEAN_MOTION_DOT = .214162E-2
MEAN_MOTION_DDOT = 0

CCSDS_OMM_VERS = 2.0
CREATION_DATE  = 
ORIGINATOR     = 

OBJECT_NAME    = E-KAGAKU-1
OBJECT_ID      = 1998-067XQ
CENTER_NAME    = EARTH
REF_FRAME      = TEME
TIME_SYSTEM    = UTC
MEAN_ELEMENT_THEORY = SGP/SGP4

EPOCH          = 2026-01-31T21:12:12.553632
MEAN_MOTION    = 15.68815577
ECCENTRICITY   = .00032841
INCLINATION    = 51.6263
RA_OF_ASC_NODE = 246.3872
ARG_OF_PERICENTER = 210.1365
MEAN_ANOMALY   = 149.9444

EPHEMERIS_TYPE = 0
CLASSIFICATION_TYPE = U
NORAD_CAT_ID   = 65943
ELEMENT_SET_NO = 999
REV_AT_EPOCH   = 1770
BSTAR          = .8348729E-3
MEAN_MOTION_DOT = .98228E-3
MEAN_MOTION_DDOT = 0

CCSDS_OMM_VERS = 2.0
CREATION_DATE  = 
ORIGINATOR     = 

OBJECT_NAME    = HRC MONOBLOCK CAMERA
OBJECT_ID      = 1998-067XR
CENTER_NAME    = EARTH
REF_FRAME      = TEME
TIME_SYSTEM    = UTC
MEAN_ELEMENT_THEORY = SGP/SGP4

EPOCH          = 2026-01-31T23:59:45.526272
MEAN_MOTION    = 15.58437401
ECCENTRICITY   = .00003253
INCLINATION    = 51.6280
RA_OF_ASC_NODE = 250.1628
ARG_OF_PERICENTER = 24.5240
MEAN_ANOMALY   = 335.5767

EPHEMERIS_TYPE = 0
CLASSIFICATION_TYPE = U
NORAD_CAT_ID   = 66052
ELEMENT_SET_NO = 999
REV_AT_EPOCH   = 1666
BSTAR          = .4975616E-3
MEAN_MOTION_DOT = .38328E-3
MEAN_MOTION_DDOT = 0

CCSDS_OMM_VERS = 2.0
CREATION_DATE  = 
ORIGINATOR     = 

OBJECT_NAME    = HTV-X1
OBJECT_ID      = 2025-241A
CENTER_NAME    = EARTH
REF_FRAME      = TEME
TIME_SYSTEM    = UTC
MEAN_ELEMENT_THEORY = SGP/SGP4

EPOCH          = 2026-02-01T02:43:09.183936
MEAN_MOTION    = 15.48314896
ECCENTRICITY   = .00111278
INCLINATION    = 51.6318
RA_OF_ASC_NODE = 253.1662
ARG_OF_PERICENTER = 51.9836
MEAN_ANOMALY   = 308.2155

EPHEMERIS_TYPE = 0
CLASSIFICATION_TYPE = U
NORAD_CAT_ID   = 66174
ELEMENT_SET_NO = 999
REV_AT_EPOCH   = 51
BSTAR          = .12933381E-3
MEAN_MOTION_DOT = .6524E-4
MEAN_MOTION_DDOT = 0

CCSDS_OMM_VERS = 2.0
CREATION_DATE  = 
ORIGINATOR     = 

OBJECT_NAME    = SZ-21 MODULE
OBJECT_ID      = 2025-246C
CENTER_NAME    = EARTH
REF_FRAME      = TEME
TIME_SYSTEM    = UTC
MEAN_ELEMENT_THEORY = SGP/SGP4

EPOCH          = 2026-02-01T02:40:46.566048
MEAN_MOTION    = 15.65787969
ECCENTRICITY   = .00033558
INCLINATION    = 41.4758
RA_OF_ASC_NODE = 68.0505
ARG_OF_PERICENTER = 263.6725
MEAN_ANOMALY   = 96.3734

EPHEMERIS_TYPE = 0
CLASSIFICATION_TYPE = U
NORAD_CAT_ID   = 66515
ELEMENT_SET_NO = 999
REV_AT_EPOCH   = 1233
BSTAR          = .27960202E-3
MEAN_MOTION_DOT = .28933E-3
MEAN_MOTION_DDOT = 0

CCSDS_OMM_VERS = 2.0
CREATION_DATE  = 
ORIGINATOR     = 

OBJECT_NAME    = SHENZHOU-22
OBJECT_ID      = 2025-272A
CENTER_NAME    = EARTH
REF_FRAME      = TEME
TIME_SYSTEM    = UTC
MEAN_ELEMENT_THEORY = SGP/SGP4

EPOCH          = 2026-01-31T09:16:26.859072
MEAN_MOTION    = 15.61427822
ECCENTRICITY   = .00089098
INCLINATION    = 41.4674
RA_OF_ASC_NODE = 74.8264
ARG_OF_PERICENTER = 46.9753
MEAN_ANOMALY   = 313.1831

EPHEMERIS_TYPE = 0
CLASSIFICATION_TYPE = U
NORAD_CAT_ID   = 66645
ELEMENT_SET_NO = 999
REV_AT_EPOCH   = 26764
BSTAR          = .32370793E-3
MEAN_MOTION_DOT = .28253E-3
MEAN_MOTION_DDOT = 0

CCSDS_OMM_VERS = 2.0
CREATION_DATE  = 
ORIGINATOR     = 

OBJECT_NAME    = SOYUZ-MS 28
OBJECT_ID      = 2025-275A
CENTER_NAME    = EARTH
REF_FRAME      = TEME
TIME_SYSTEM    = UTC
MEAN_ELEMENT_THEORY = SGP/SGP4

EPOCH          = 2026-02-01T02:43:09.183936
MEAN_MOTION    = 15.48314896
ECCENTRICITY   = .00111278
INCLINATION    = 51.6318
RA_OF_ASC_NODE = 253.1662
ARG_OF_PERICENTER = 51.9836
MEAN_ANOMALY   = 308.2155

EPHEMERIS_TYPE = 0
CLASSIFICATION_TYPE = U
NORAD_CAT_ID   = 66664
ELEMENT_SET_NO = 999
REV_AT_EPOCH   = 128
BSTAR          = .12933381E-3
MEAN_MOTION_DOT = .6524E-4
MEAN_MOTION_DDOT = 0

CCSDS_OMM_VERS = 2.0
CREATION_DATE  = 
ORIGINATOR     = 

OBJECT_NAME    = DUPLEX
OBJECT_ID      = 1998-067XS
CENTER_NAME    = EARTH
REF_FRAME      = TEME
TIME_SYSTEM    = UTC
MEAN_ELEMENT_THEORY = SGP/SGP4

EPOCH          = 2026-02-01T00:24:14.088672
MEAN_MOTION    = 15.53632760
ECCENTRICITY   = .00016023
INCLINATION    = 51.6290
RA_OF_ASC_NODE = 252.5255
ARG_OF_PERICENTER = 80.9639
MEAN_ANOMALY   = 279.1532

EPHEMERIS_TYPE = 0
CLASSIFICATION_TYPE = U
NORAD_CAT_ID   = 66906
ELEMENT_SET_NO = 999
REV_AT_EPOCH   = 942
BSTAR          = .41378975E-3
MEAN_MOTION_DOT = .26515E-3
MEAN_MOTION_DDOT = 0

CCSDS_OMM_VERS = 2.0
CREATION_DATE  = 
ORIGINATOR     = 

OBJECT_NAME    = 1998-067XT
OBJECT_ID      = 1998-067XT
CENTER_NAME    = EARTH
REF_FRAME      = TEME
TIME_SYSTEM    = UTC
MEAN_ELEMENT_THEORY = SGP/SGP4

EPOCH          = 2026-01-31T20:18:51.156288
MEAN_MOTION    = 15.59907385
ECCENTRICITY   = .00027892
INCLINATION    = 51.6268
RA_OF_ASC_NODE = 252.1368
ARG_OF_PERICENTER = 161.7115
MEAN_ANOMALY   = 198.3979

EPHEMERIS_TYPE = 0
CLASSIFICATION_TYPE = U
NORAD_CAT_ID   = 66907
ELEMENT_SET_NO = 999
REV_AT_EPOCH   = 941
BSTAR          = .95076906E-3
MEAN_MOTION_DOT = .78348E-3
MEAN_MOTION_DDOT = 0

CCSDS_OMM_VERS = 2.0
CREATION_DATE  = 
ORIGINATOR     = 

OBJECT_NAME    = 1998-067XU
OBJECT_ID      = 1998-067XU
CENTER_NAME    = EARTH
REF_FRAME      = TEME
TIME_SYSTEM    = UTC
MEAN_ELEMENT_THEORY = SGP/SGP4

EPOCH          = 2026-01-31T20:18:16.033824
MEAN_MOTION    = 15.59932347
ECCENTRICITY   = .00026059
INCLINATION    = 51.6262
RA_OF_ASC_NODE = 252.1321
ARG_OF_PERICENTER = 161.1183
MEAN_ANOMALY   = 198.9907

EPHEMERIS_TYPE = 0
CLASSIFICATION_TYPE = U
NORAD_CAT_ID   = 66908
ELEMENT_SET_NO = 999
REV_AT_EPOCH   = 941
BSTAR          = .10124197E-2
MEAN_MOTION_DOT = .83595E-3
MEAN_MOTION_DDOT = 0

